#aV2019  2 17  0  0  0.00000000     288 DD+AD WGS84 FIT  NGA
## 2041      0.00000000   300.00000000 58531 0.0000000000000
+   31     1  2  3  5  6  7  8  9 10 11 12 13 14 15 16 17 18
+         19 20 21 22 23 24 25 26 27 28 29 30 31 32  0  0  0
+          0  0  0  0  0  0  0  0  0  0  0  0  0  0  0  0  0
+          0  0  0  0  0  0  0  0  0  0  0  0  0  0  0  0  0
+          0  0  0  0  0  0  0  0  0  0  0  0  0  0  0  0  0
++         2  2  2  2  2  2  2  2  2  2  2  2  2  2  2  2  2
++         2  2  2  2  2  2  2  2  2  2  2  2  2  2  0  0  0
++         0  0  0  0  0  0  0  0  0  0  0  0  0  0  0  0  0
++         0  0  0  0  0  0  0  0  0  0  0  0  0  0  0  0  0
++         0  0  0  0  0  0  0  0  0  0  0  0  0  0  0  0  0
%c cc cc ccc ccc cccc cccc cccc cccc ccccc ccccc ccccc ccccc
%c cc cc ccc ccc cccc cccc cccc cccc ccccc ccccc ccccc ccccc
%f  0.0000000  0.000000000  0.00000000000  0.000000000000000
%f  0.0000000  0.000000000  0.00000000000  0.000000000000000
%i    0    0    0    0      0      0      0      0         0
%i    0    0    0    0      0      0      0      0         0
/*      NGA, ST. LOUIS,MO.                                  
/*   EPHEMERIS COMPUTED FROM 2 DAYS OF DATA                 
/*   EPOCHA v3 SMOOTHER                                     
/*   G1762 IERS2010 SATAF SATAPC                            
*  2019  2 17 12 50  0.00000000
P  1 -13260.810929  15504.606978  16661.023415   -164.920102                    
V  1    800.066123 -21635.476213  20864.886133     -0.070278                    
P  2  13972.254183   8669.657564 -20294.035091   -142.181242                    
V  2  -2376.197079  27043.062306   9456.212498     -0.098432                    
P  3 -22665.984289  13085.716696  -4314.132988    183.340065                    
V  3  -6093.145430   -372.359446  31219.245663      0.017120                    
P  5  22805.889292    385.292713 -13894.026273      1.096839                    
V  5 -14826.986445   9366.642019 -24084.990692      0.000632                    
P  6   8254.999362  20001.410552 -15342.684296    273.798494                    
V  6  -3910.745139  19225.160147  22920.277204     -0.082588                    
P  7  -6542.183808  25018.707997  -4601.443833     30.849097                    
V  7  -2502.262305  -6611.217591 -31216.369210     -0.072023                    
P  8 -21344.690616  -1974.921568  15855.185943   -133.083388                    
V  8 -15251.135517 -12959.064182 -22020.620521     -0.014172                    
P  9  -2767.581666  16279.566931 -20848.230077    457.314969                    
V  9 -21918.864395 -14732.188067  -8622.796549     -0.052782                    
P 10  -3641.651310 -14902.223141  21721.748641    114.953931                    
V 10  25310.255073 -10666.876455  -3271.034286     -0.076712                    
P 11 -12885.477402  10800.146086  20065.823005   -658.809792                    
V 11  -9521.264338 -25141.578986   6996.092471      0.060326                    
P 12  24103.241169 -10599.403694  -2815.996371    267.203349                    
V 12   3878.264641    944.621145  32126.032855     -0.031928                    
P 13  21849.611198  10607.162405  10673.850357    -74.637175                    
V 13   8377.817229  11082.272467 -27820.175807      0.012647                    
P 14 -17934.825499 -19360.717543   4067.901707    -91.232316                    
V 14   5300.001833   1161.287690  31076.135014      0.006992                    
P 15  20754.331256  -1788.825082  16434.529261   -327.444267                    
V 15  17030.843525  12999.246588 -19391.956117      0.017182                    
P 16 -23371.537898  -1343.100786 -13132.318922    -19.807347                    
V 16  14922.384811  -6394.130464 -25829.531709     -0.024957                    
P 17  11524.982251  20536.743760  12784.846185     11.091946                    
V 17 -12930.692391  -8686.907879  26372.396412      0.055201                    
P 18 -15109.364111   5195.970809  20715.095746     26.863437                    
V 18    968.592681 -27469.784124   7565.256274      0.037509                    
P 19  17795.439338  19275.739765   3486.233371   -351.504470                    
V 19  -5062.625744  -1553.018672  31868.379150      0.041511                    
P 20   6042.961256 -18735.912999  17656.360965    522.294777                    
V 20  20808.465057  -9557.871274 -17294.284318      0.003718                    
P 21   2258.066892 -26462.704530   -997.324863   -248.467603                    
V 21   3062.126609   2405.990799 -31346.415185      0.072197                    
P 22 -24538.079532   9379.674744   3945.088632   -647.129669                    
V 22   2463.079961  -5593.864312  30488.294344     -0.080613                    
P 23 -13833.998000   8601.742773 -20728.395965   -196.938332                    
V 23 -21640.749711 -16221.187263   7192.106322      0.012916                    
P 24  14538.495952 -11421.204408  18800.855456    -62.280134                    
V 24    265.732583  24443.655066  14851.087800     -0.004771                    
P 25  16414.965291 -16519.685579 -12726.859593   -721.694778                    
V 25  15470.834964  -4319.763242  26220.220671     -0.053851                    
P 26 -16781.668528  -7350.808805 -19301.284394    126.876038                    
V 26  21649.979470 -11440.279665 -14303.300940      0.103004                    
P 27 -23205.751790 -10981.708773   7289.165539    -69.407228                    
V 27  -6342.993069  -7047.542976 -30152.015995     -0.073881                    
P 28    849.759747  15345.139187  22286.544679    764.784245                    
V 28 -25462.916592   8217.521480  -4734.346115      0.006947                    
P 29   7657.126038 -12685.690239 -22063.476731    268.497837                    
V 29  21431.252041  17853.354369  -2825.752395     -0.086454                    
P 30    666.870286  25652.744089   6496.808429    -54.209549                    
V 30  -4692.176889   7647.786367 -29954.323785     -0.064165                    
P 31  -8995.446703 -18523.667229 -16514.746710     58.023379                    
V 31   5115.451036 -20641.801176  20797.449986     -0.026942                    
P 32 -14763.747816 -19669.507022  10212.790190   -222.386669                    
V 32  11885.906863   5554.937038  27890.125906      0.188182                    
EOF
